{
  "type": "FeatureCollection",
  "features": [
    {
      "type": "Feature",
      "properties": {
        "norad_id": 43706,
        "name": "BEIDOU-3 M17 (C36)",
        "group": "beidou",
        "lat": 7.841668971021819,
        "lon": 3.0276360807675324,
        "alt_km": 21540.264502360613,
        "timestamp": "2025-12-09T11:33:55.065089+00:00",
        "meta_object_name": "BEIDOU-3 M17 (C36)",
        "meta_object_id": "2018-093A",
        "meta_epoch": "2025-12-07T14:48:21.849120",
        "meta_mean_motion": 1.86228285,
        "meta_eccentricity": 0.0006281,
        "meta_inclination": 54.1726,
        "meta_ra_of_asc_node": 188.7957,
        "meta_arg_of_pericenter": 306.8876,
        "meta_mean_anomaly": 53.1241,
        "meta_ephemeris_type": 0,
        "meta_classification_type": "U",
        "meta_norad_cat_id": 43706,
        "meta_element_set_no": 999,
        "meta_rev_at_epoch": 4797,
        "meta_bstar": 0,
        "meta_mean_motion_dot": 5.7e-07,
        "meta_mean_motion_ddot": 0,
        "tle_line1": "1 43706U 18093A   25341.61691955  .00000057  00000+0  00000+0 0  9998",
        "tle_line2": "2 43706  54.1726 188.7957 0006281 306.8876  53.1241  1.86228285 47972"
      },
      "geometry": {
        "type": "Point",
        "coordinates": [
          3.0276360807675324,
          7.841668971021819
        ]
      }
    },
    {
      "type": "Feature",
      "properties": {
        "norad_id": 43707,
        "name": "BEIDOU-3 M18 (C37)",
        "group": "beidou",
        "lat": -53.59108349415014,
        "lon": 87.18203173657719,
        "alt_km": 21533.936442161143,
        "timestamp": "2025-12-09T11:33:55.065100+00:00",
        "meta_object_name": "BEIDOU-3 M18 (C37)",
        "meta_object_id": "2018-093B",
        "meta_epoch": "2025-12-08T00:22:06.139776",
        "meta_mean_motion": 1.86226539,
        "meta_eccentricity": 0.00063651,
        "meta_inclination": 54.1733,
        "meta_ra_of_asc_node": 188.774,
        "meta_arg_of_pericenter": 352.0648,
        "meta_mean_anomaly": 7.9918,
        "meta_ephemeris_type": 0,
        "meta_classification_type": "U",
        "meta_norad_cat_id": 43707,
        "meta_element_set_no": 999,
        "meta_rev_at_epoch": 4797,
        "meta_bstar": 0,
        "meta_mean_motion_dot": 5.3e-07,
        "meta_mean_motion_ddot": 0,
        "tle_line1": "1 43707U 18093B   25342.01534884  .00000053  00000+0  00000+0 0  9997",
        "tle_line2": "2 43707  54.1733 188.7740 0006365 352.0648   7.9918  1.86226539 47972"
      },
      "geometry": {
        "type": "Point",
        "coordinates": [
          87.18203173657719,
          -53.59108349415014
        ]
      }
    },
    {
      "type": "Feature",
      "properties": {
        "norad_id": 44204,
        "name": "BEIDOU-3 IGSO-1 (C38)",
        "group": "beidou",
        "lat": -28.442442198266882,
        "lon": 20.214281083226137,
        "alt_km": 35825.69226673863,
        "timestamp": "2025-12-09T11:33:55.065113+00:00",
        "meta_object_name": "BEIDOU-3 IGSO-1 (C38)",
        "meta_object_id": "2019-023A",
        "meta_epoch": "2025-11-19T14:15:02.708640",
        "meta_mean_motion": 1.00252177,
        "meta_eccentricity": 0.0026966,
        "meta_inclination": 58.4003,
        "meta_ra_of_asc_node": 39.8168,
        "meta_arg_of_pericenter": 221.2202,
        "meta_mean_anomaly": 126.9723,
        "meta_ephemeris_type": 0,
        "meta_classification_type": "U",
        "meta_norad_cat_id": 44204,
        "meta_element_set_no": 999,
        "meta_rev_at_epoch": 510,
        "meta_bstar": 0,
        "meta_mean_motion_dot": -2.26e-06,
        "meta_mean_motion_ddot": 0,
        "tle_line1": "1 44204U 19023A   25323.59378135 -.00000226  00000+0  00000+0 0  9994",
        "tle_line2": "2 44204  58.4003  39.8168 0026966 221.2202 126.9723  1.00252177  5102"
      },
      "geometry": {
        "type": "Point",
        "coordinates": [
          20.214281083226137,
          -28.442442198266882
        ]
      }
    },
    {
      "type": "Feature",
      "properties": {
        "norad_id": 44231,
        "name": "BEIDOU-2 G8 (C01)",
        "group": "beidou",
        "lat": -1.0037306097234806,
        "lon": 36.58205153833088,
        "alt_km": 35773.30812955773,
        "timestamp": "2025-12-09T11:33:55.065127+00:00",
        "meta_object_name": "BEIDOU-2 G8 (C01)",
        "meta_object_id": "2019-027A",
        "meta_epoch": "2025-12-08T22:51:03.351168",
        "meta_mean_motion": 1.00268559,
        "meta_eccentricity": 0.0008514,
        "meta_inclination": 1.6519,
        "meta_ra_of_asc_node": 74.67,
        "meta_arg_of_pericenter": 254.7985,
        "meta_mean_anomaly": 235.7828,
        "meta_ephemeris_type": 0,
        "meta_classification_type": "U",
        "meta_norad_cat_id": 44231,
        "meta_element_set_no": 999,
        "meta_rev_at_epoch": 2417,
        "meta_bstar": 0,
        "meta_mean_motion_dot": -2.46e-06,
        "meta_mean_motion_ddot": 0,
        "tle_line1": "1 44231U 19027A   25342.95212212 -.00000246  00000+0  00000+0 0  9994",
        "tle_line2": "2 44231   1.6519  74.6700 0008514 254.7985 235.7828  1.00268559 24175"
      },
      "geometry": {
        "type": "Point",
        "coordinates": [
          36.58205153833088,
          -1.0037306097234806
        ]
      }
    },
    {
      "type": "Feature",
      "properties": {
        "norad_id": 44337,
        "name": "BEIDOU-3 IGSO-2 (C39)",
        "group": "beidou",
        "lat": -25.05787184345862,
        "lon": -0.4994258515311352,
        "alt_km": 35634.53038080829,
        "timestamp": "2025-12-09T11:33:55.065139+00:00",
        "meta_object_name": "BEIDOU-3 IGSO-2 (C39)",
        "meta_object_id": "2019-035A",
        "meta_epoch": "2025-12-08T21:18:38.600064",
        "meta_mean_motion": 1.00272014,
        "meta_eccentricity": 0.0037301,
        "meta_inclination": 55.2241,
        "meta_ra_of_asc_node": 160.5341,
        "meta_arg_of_pericenter": 202.3504,
        "meta_mean_anomaly": 154.1975,
        "meta_ephemeris_type": 0,
        "meta_classification_type": "U",
        "meta_norad_cat_id": 44337,
        "meta_element_set_no": 999,
        "meta_rev_at_epoch": 2375,
        "meta_bstar": 0,
        "meta_mean_motion_dot": -7.9e-07,
        "meta_mean_motion_ddot": 0,
        "tle_line1": "1 44337U 19035A   25342.88794676 -.00000079  00000+0  00000+0 0  9995",
        "tle_line2": "2 44337  55.2241 160.5341 0037301 202.3504 154.1975  1.00272014 23758"
      },
      "geometry": {
        "type": "Point",
        "coordinates": [
          -0.4994258515311352,
          -25.05787184345862
        ]
      }
    },
    {
      "type": "Feature",
      "properties": {
        "norad_id": 44542,
        "name": "BEIDOU-3 M24 (C46)",
        "group": "beidou",
        "lat": -28.26737389542578,
        "lon": 31.795182134155453,
        "alt_km": 21558.09287487033,
        "timestamp": "2025-12-09T11:33:55.065150+00:00",
        "meta_object_name": "BEIDOU-3 M24 (C46)",
        "meta_object_id": "2019-061A",
        "meta_epoch": "2025-12-08T02:04:30.505152",
        "meta_mean_motion": 1.86229279,
        "meta_eccentricity": 0.00095745,
        "meta_inclination": 54.4002,
        "meta_ra_of_asc_node": 189.1732,
        "meta_arg_of_pericenter": 24.5539,
        "meta_mean_anomaly": 335.5587,
        "meta_ephemeris_type": 0,
        "meta_classification_type": "U",
        "meta_norad_cat_id": 44542,
        "meta_element_set_no": 999,
        "meta_rev_at_epoch": 4223,
        "meta_bstar": 0,
        "meta_mean_motion_dot": 5.3e-07,
        "meta_mean_motion_ddot": 0,
        "tle_line1": "1 44542U 19061A   25342.08646418  .00000053  00000+0  00000+0 0  9995",
        "tle_line2": "2 44542  54.4002 189.1732 0009574  24.5539 335.5587  1.86229279 42233"
      },
      "geometry": {
        "type": "Point",
        "coordinates": [
          31.795182134155453,
          -28.26737389542578
        ]
      }
    },
    {
      "type": "Feature",
      "properties": {
        "norad_id": 44543,
        "name": "BEIDOU-3 M23 (C45)",
        "group": "beidou",
        "lat": 39.504184695119726,
        "lon": -27.112758456881522,
        "alt_km": 21528.059671708423,
        "timestamp": "2025-12-09T11:33:55.065161+00:00",
        "meta_object_name": "BEIDOU-3 M23 (C45)",
        "meta_object_id": "2019-061B",
        "meta_epoch": "2025-12-08T18:00:07.463232",
        "meta_mean_motion": 1.8622754,
        "meta_eccentricity": 0.00060873,
        "meta_inclination": 54.3989,
        "meta_ra_of_asc_node": 189.119,
        "meta_arg_of_pericenter": 23.0878,
        "meta_mean_anomaly": 334.736,
        "meta_ephemeris_type": 0,
        "meta_classification_type": "U",
        "meta_norad_cat_id": 44543,
        "meta_element_set_no": 999,
        "meta_rev_at_epoch": 4224,
        "meta_bstar": 0,
        "meta_mean_motion_dot": 5e-07,
        "meta_mean_motion_ddot": 0,
        "tle_line1": "1 44543U 19061B   25342.75008638  .00000050  00000+0  00000+0 0  9993",
        "tle_line2": "2 44543  54.3989 189.1190 0006087  23.0878 334.7360  1.86227540 42241"
      },
      "geometry": {
        "type": "Point",
        "coordinates": [
          -27.112758456881522,
          39.504184695119726
        ]
      }
    }
  ]
}